{
  "type": "FeatureCollection",
  "features": [
    {
      "type": "Feature",
      "properties": {
        "norad_id": 54741,
        "name": "GALAXY 35 (G-35)",
        "group": "intelsat",
        "lat": -0.03268846437663263,
        "lon": -144.13372134962682,
        "alt_km": 35781.33029846502,
        "timestamp": "2025-12-15T14:57:57.508046+00:00",
        "meta_object_name": "GALAXY 35 (G-35)",
        "meta_object_id": "2022-170A",
        "meta_epoch": "2025-12-14T21:32:14.546976",
        "meta_mean_motion": 1.00269195,
        "meta_eccentricity": 0.00022738,
        "meta_inclination": 0.0159,
        "meta_ra_of_asc_node": 339.3755,
        "meta_arg_of_pericenter": 291.6447,
        "meta_mean_anomaly": 42.7407,
        "meta_ephemeris_type": 0,
        "meta_classification_type": "U",
        "meta_norad_cat_id": 54741,
        "meta_element_set_no": 999,
        "meta_rev_at_epoch": 1104,
        "meta_bstar": 0,
        "meta_mean_motion_dot": 0,
        "meta_mean_motion_ddot": 0,
        "tle_line1": "1 54741U 22170A   25348.89739059  .00000000  00000+0  00000+0 0  9993",
        "tle_line2": "2 54741   0.0159 339.3755 0002273 291.6447  42.7407  1.00269195 11043"
      },
      "geometry": {
        "type": "Point",
        "coordinates": [
          -144.13372134962682,
          -0.03268846437663263
        ]
      }
    },
    {
      "type": "Feature",
      "properties": {
        "norad_id": 54742,
        "name": "GALAXY 36 (G-36)",
        "group": "intelsat",
        "lat": -0.02420864286436727,
        "lon": -139.99653339322577,
        "alt_km": 35786.42994813182,
        "timestamp": "2025-12-15T14:57:57.508056+00:00",
        "meta_object_name": "GALAXY 36 (G-36)",
        "meta_object_id": "2022-170B",
        "meta_epoch": "2025-12-14T12:59:48.624864",
        "meta_mean_motion": 1.00271323,
        "meta_eccentricity": 2.906e-05,
        "meta_inclination": 0.0231,
        "meta_ra_of_asc_node": 256.797,
        "meta_arg_of_pericenter": 60.6633,
        "meta_mean_anomaly": 231.956,
        "meta_ephemeris_type": 0,
        "meta_classification_type": "U",
        "meta_norad_cat_id": 54742,
        "meta_element_set_no": 999,
        "meta_rev_at_epoch": 1092,
        "meta_bstar": 0,
        "meta_mean_motion_dot": -1.66e-06,
        "meta_mean_motion_ddot": 0,
        "tle_line1": "1 54742U 22170B   25348.54153501 -.00000166  00000+0  00000+0 0  9992",
        "tle_line2": "2 54742   0.0231 256.7970 0000290  60.6633 231.9560  1.00271323 10928"
      },
      "geometry": {
        "type": "Point",
        "coordinates": [
          -139.99653339322577,
          -0.02420864286436727
        ]
      }
    },
    {
      "type": "Feature",
      "properties": {
        "norad_id": 57493,
        "name": "GALAXY 37 (G-37)",
        "group": "intelsat",
        "lat": 0.007152829452908848,
        "lon": -178.0123402555946,
        "alt_km": 35785.31841717799,
        "timestamp": "2025-12-15T14:57:57.508067+00:00",
        "meta_object_name": "GALAXY 37 (G-37)",
        "meta_object_id": "2023-112A",
        "meta_epoch": "2025-12-14T16:14:22.490880",
        "meta_mean_motion": 1.00272504,
        "meta_eccentricity": 0.00020403,
        "meta_inclination": 0.0203,
        "meta_ra_of_asc_node": 49.3136,
        "meta_arg_of_pericenter": 219.5099,
        "meta_mean_anomaly": 291.3663,
        "meta_ephemeris_type": 0,
        "meta_classification_type": "U",
        "meta_norad_cat_id": 57493,
        "meta_element_set_no": 999,
        "meta_rev_at_epoch": 869,
        "meta_bstar": 0,
        "meta_mean_motion_dot": 6.7e-07,
        "meta_mean_motion_ddot": 0,
        "tle_line1": "1 57493U 23112A   25348.67664920  .00000067  00000+0  00000+0 0  9990",
        "tle_line2": "2 57493   0.0203  49.3136 0002040 219.5099 291.3663  1.00272504  8696"
      },
      "geometry": {
        "type": "Point",
        "coordinates": [
          -178.0123402555946,
          0.007152829452908848
        ]
      }
    }
  ]
}